satname,norad_id,inclination_deg,eccentricity,mean_motion_rev_per_day,perigee_km,apogee_km,l1,l2
STARLINK-1225,45187,53.157,0.0002566,15.32173299,467.5724188412787,471.08653863816744,1 45187U 20012K   26123.32884427  .00054330  00000+0  17241-2 0  9993,2 45187  53.1570 145.7036 0002566  48.6886 311.4336 15.32173299343309
STARLINK-1230,45189,53.1552,0.0002799,15.32145705,467.49506502745044,471.3283227863003,1 45189U 20012M   26123.83335647  .00044637  00000+0  14216-2 0  9994,2 45189  53.1552 143.4098 0002799  50.3528 161.5169 15.32145705  5747
STARLINK-1234,45190,53.0414,0.0008707,15.69966338,353.1272896346554,364.85932835473795,1 45190U 20012N   26123.83286597  .00070779  00000+0  57679-3 0  9992,2 45190  53.0414  53.9679 0008707 104.6403 255.5579 15.69966338344529
STARLINK-1269,45197,53.155,0.0002698,15.32217426,467.35059833456125,471.0454203055906,1 45197U 20012V   26123.46463843  .00060118  00000+0  19024-2 0  9996,2 45197  53.1550 144.9772 0002698  38.1587 321.9605 15.32217426343300
STARLINK-1154,45198,53.0425,0.00038,15.54878851,399.9281735362829,405.0814613175271,1 45198U 20012W   26123.66555822  .00098048  00000+0  14319-2 0  9993,2 45198  53.0425 105.9458 0003800   4.2622 355.8420 15.54878851343826
STARLINK-1199,45201,53.155,0.0002489,15.32096382,467.8542644186891,471.26304731618075,1 45201U 20012Z   26123.43532060  .00054654  00000+0  17384-2 0  9992,2 45201  53.1550 129.3762 0002489  63.2865 296.8391 15.32096382343542
STARLINK-1209,45206,53.0396,0.0011607,15.60812474,377.45860927479407,393.15927268218184,1 45206U 20012AE  26123.84609992  .00061883  00000+0  72709-3 0  9996,2 45206  53.0396  66.3098 0011607  92.3358 267.8984 15.60812474343509
STARLINK-1231,45212,53.041,0.000436,15.25522303,486.22333926151987,492.21167239060105,1 45212U 20012AL  26123.26260094  .00054514  00000+0  21200-2 0  9997,2 45212  53.0410 124.2193 0004360 350.8989   9.1928 15.25522303343542
STARLINK-1271,45217,53.1549,0.0002348,15.32099438,467.9417132314202,471.1573868353171,1 45217U 20012AR  26123.43513636  .00053155  00000+0  16912-2 0  9998,2 45217  53.1549 129.5226 0002348  55.3384 304.7839 15.32099438343547
STARLINK-1191,45222,53.1539,0.0005041,15.35754113,455.23504833384595,462.12792873398575,1 45222U 20012AW  26123.63340021  .00062315  00000+0  17620-2 0  9997,2 45222  53.1539 102.5645 0005041  65.3071 294.8457 15.35754113343945
STARLINK-1212,45223,53.0419,0.0005491,15.63006996,375.26636848140424,382.6870307463205,1 45223U 20012AX  26123.84107209  .00120907  00000+0  12931-2 0  9992,2 45223  53.0419  82.4073 0005491  40.7803 319.3620 15.63006996344230
STARLINK-1215,45225,53.1547,0.0002483,15.32332567,467.15488651623946,470.5551027407719,1 45225U 20012AZ  26123.63371816  .00056471  00000+0  17822-2 0  9996,2 45225  53.1547 102.9047 0002483  82.1263 278.0020 15.32332567343890
STARLINK-1221,45227,53.0662,0.0003324,15.43783548,432.69005072196524,437.2193940990237,1 45227U 20012BB  26123.38806305  .00016932  00000+0  37666-3 0  9993,2 45227  53.0662  10.0298 0003324 147.6181 212.5029 15.43783548345151
STARLINK-1222,45228,53.0543,9.77e-05,15.52892341,407.62322890899577,408.94929601448075,1 45228U 20012BC  26123.57840639  .00035828  00000+0  57167-3 0  9996,2 45228  53.0543  78.9736 0000977  46.0423 314.0666 15.52892341344147
STARLINK-1226,45229,53.1573,0.0003364,15.40416261,442.58460580147766,447.17513155072174,1 45229U 20012BD  26123.66099509  .00068292  00000+0  16578-2 0  9990,2 45229  53.1573 100.9388 0003364  68.9038 291.2327 15.40416261343867
STARLINK-1227,45230,53.155,0.0004317,15.40505226,441.6717945890614,447.5625605459736,1 45230U 20012BE  26123.34923082  .00068742  00000+0  16635-2 0  9993,2 45230  53.1550 102.5540 0004317  72.0975 288.0501 15.40505226343933
STARLINK-1246,45235,53.1542,0.0002974,15.32299953,466.9158257946565,470.9884744211413,1 45235U 20012BK  26123.34330363  .00052229  00000+0  16517-2 0  9994,2 45235  53.1542 145.1978 0002974  63.0345 297.0961 15.32299953343348
STARLINK-1270,45237,53.0425,0.0005024,15.56309198,394.945113575086,401.75412733131816,1 45237U 20012BM  26123.84535278  .00112564  00000+0  15555-2 0  9993,2 45237  53.0425  82.1954 0005024  60.5836 299.5675 15.56309198344236
STARLINK-1279,45360,53.0373,0.0008569,15.69546111,354.42170145475484,365.96985617108567,1 45360U 20019A   26123.91668980  .00079065  00000+0  65444-3 0  9993,2 45360  53.0373 188.3553 0008569 354.6460 241.8507 15.69546111  5900
STARLINK-1301,45361,53.0392,0.0006014,15.72054692,348.9773590725599,357.07360130373036,1 45361U 20019B   26123.45840472  .00074041  00000+0  55303-3 0  9993,2 45361  53.0392 193.8445 0006014  16.7020 343.4194 15.72054692339200
STARLINK-1262,45366,53.1563,0.0001466,15.31279063,470.9908445918891,472.9993033159735,1 45366U 20019G   26123.81295376  .00054522  00000+0  17790-2 0  9994,2 45366  53.1563 269.2191 0001466 328.2478  31.8434 15.31279063338194
STARLINK-1273,45367,53.0462,0.0004147,15.52490082,406.64366321303896,412.2732949033698,1 45367U 20019H   26123.72194633  .00083927  00000+0  13401-2 0  9995,2 45367  53.0462 251.3750 0004147 282.9702  77.0844 15.52490082338422
STARLINK-1277,45369,53.0466,0.000527,15.58369355,388.80792102537634,395.9440417077367,1 45369U 20019K   26123.62630472  .00059483  00000+0  76917-3 0  9994,2 45369  53.0466 247.5023 0005270 271.3361  88.7047 15.58369355338472
STARLINK-1281,45370,53.1584,0.0001996,15.32222329,467.8166768440742,470.5501271485509,1 45370U 20019L   26123.78047468  .00057504  00000+0  18206-2 0  9998,2 45370  53.1584 269.2163 0001996 329.0070  31.0814 15.32222329338194
STARLINK-1300,45374,53.1608,0.0002382,15.32431306,466.92999364809566,470.1917605167382,1 45374U 20019Q   26123.67049257  .00058487  00000+0  18392-2 0  9995,2 45374  53.1608 269.7225 0002382 342.1367  17.9551 15.32431306338170
STARLINK-1302,45375,53.0473,0.0003121,15.63743733,374.74595085645615,378.9624163532626,1 45375U 20019R   26123.83335647  .00146283  00000+0  15148-2 0  9993,2 45375  53.0473 243.6869 0003121 313.3197 321.2076 15.63743733  5985
STARLINK-1304,45376,53.045,0.000402,15.57705242,391.57768797667904,397.02272749169697,1 45376U 20019S   26123.73231345  .00064325  00000+0  85191-3 0  9995,2 45376  53.0450 244.1616 0004020 297.8467  62.2137 15.57705242338527
STARLINK-1305,45377,53.0392,0.0009328,15.64422685,368.6003869666629,381.19885208404867,1 45377U 20019T   26123.83335647  .00094635  00000+0  96035-3 0  9993,2 45377  53.0392 224.1680 0009328 320.4164 274.1172 15.64422685  5973
STARLINK-1319,45379,53.042,0.0003372,15.72199289,350.34314980685485,354.88236744407095,1 45379U 20019V   26123.71764394  .00071151  00000+0  52890-3 0  9996,2 45379  53.0420 218.1485 0003372 335.0367  25.0487 15.72199289338895
STARLINK-1266,45383,53.0457,0.000399,15.54222573,401.7072180280675,407.1196932916837,1 45383U 20019Z   26123.66499757  .00088230  00000+0  13221-2 0  9993,2 45383  53.0457 229.2145 0003990 292.0669  67.9917 15.54222573338727
STARLINK-1267,45384,53.0463,0.0006198,15.59912931,383.7152455191026,392.1024359432722,1 45384U 20019AA  26123.64334127  .00110536  00000+0  13342-2 0  9990,2 45384  53.0463 221.3941 0006198 348.1488  11.9378 15.59912931338838
STARLINK-1272,45386,53.0413,0.0008076,15.66046547,364.78060016045583,375.68056347861057,1 45386U 20019AC  26123.52106105  .00057779  00000+0  55445-3 0  9992,2 45386  53.0413 202.0717 0008076 339.5450  20.5240 15.66046547339094
STARLINK-1274,45387,53.0234,0.0008745,15.56086918,393.0683302553525,404.9215340046467,1 45387U 20019AD  26123.47170058  .00099637  00000+0  13898-2 0  9999,2 45387  53.0234 199.2714 0008745   3.4764 356.6305 15.56086918339122
STARLINK-1280,45388,53.0393,0.0004719,15.72915025,347.395495577628,353.74604997357346,1 45388U 20019AE  26123.61672247  .00075135  00000+0  54116-3 0  9999,2 45388  53.0393 211.2102 0004719 346.3526  13.7364 15.72915025338962
STARLINK-1283,45389,53.0402,0.0003439,15.67268993,364.40148602665795,369.0405993884324,1 45389U 20019AF  26123.56736166  .00057167  00000+0  52300-3 0  9993,2 45389  53.0402 201.2603 0003439  13.3249 346.7856 15.67268993339112
STARLINK-1284,45390,53.0412,0.000406,15.66423574,366.40828477932246,371.88707994139804,1 45390U 20019AG  26123.83335647 -.00028239  00000+0 -26204-3 0  9998,2 45390  53.0412 223.5660 0004060 282.2774 170.4983 15.66423574  5970
STARLINK-1297,45395,53.0428,0.0005511,15.64870727,369.88968420082256,377.33146037499955,1 45395U 20019AM  26123.73239826  .00051401  00000+0  51836-3 0  9998,2 45395  53.0428 222.6849 0005511 294.9336  65.1105 15.64870727338000
STARLINK-1307,45397,53.0539,0.0001014,15.54387956,403.24464766642177,404.62005133049934,1 45397U 20019AP  26123.66684694  .00036275  00000+0  54819-3 0  9995,2 45397  53.0539 226.0538 0001014  21.5545 338.5508 15.54387956338592
STARLINK-1255,45399,53.037,0.0005876,15.61349529,379.7846211929891,387.73120009197646,1 45399U 20019AR  26123.44132881  .00041592  00000+0  48298-3 0  9991,2 45399  53.0370 197.1678 0005876 351.9389   8.1528 15.61349529338961
STARLINK-1260,45404,53.158,0.0004156,15.34766459,458.771662935902,464.45686418617333,1 45404U 20019AW  26123.62385126  .00067647  00000+0  19719-2 0  9994,2 45404  53.1580 233.3281 0004156 326.2470  33.8267 15.34766459338398
STARLINK-1263,45405,53.1577,0.0002959,15.32323978,466.85454799476247,470.9066129989005,1 45405U 20019AX  26123.59994969  .00057407  00000+0  18117-2 0  9996,2 45405  53.1577 234.0470 0002959 357.7580   2.3407 15.32323978338382
STARLINK-1265,45406,53.1582,0.0003613,15.35024457,458.37692640546356,463.3187768592534,1 45406U 20019AY  26123.55907079  .00053146  00000+0  15419-2 0  9997,2 45406  53.1582 233.7047 0003613 322.7217  37.3534 15.35024457338384
STARLINK-1278,45408,53.0409,0.0005619,15.65574996,367.7929163511899,375.37825459274245,1 45408U 20019BA  26123.64987840  .00050577  00000+0  49609-3 0  9997,2 45408  53.0409 222.2447 0005619 323.7229  36.3404 15.65574996338546
